[
  {
    "nombre": "ATLAS AGENA D R/B",
    "pais": "UNITED STATES OF AMERICA",
    "tamano_caida_kg": null,
    "material_principal": null,
    "fecha": "2011-01-18",
    "fecha_tle": "2011-01-18",
    "dias_diferencia": 0,
    "inclinacion_orbita": 47.5,
    "lugar_caida": {
      "lat": 45.0,
      "lon": -87.0
    },
    "imagen": null,
    "tle1": "1 03145U 68014B  11018.33679383 -.00007350 +60653-5 +00000-0 0  9996",
    "tle2": "2 03145 047.9216 051.8690 9174194 109.4430 352.9566 00.38858306057648",
    "a": 79325.511,
    "apogeo": 145722.138,
    "perigeo": 172.613
  },
  {
    "nombre": "METEOR 1-1",
    "pais": "COMMONWEALTH OF INDEPENDENT STATES",
    "tamano_caida_kg": null,
    "material_principal": null,
    "fecha": "2012-03-26",
    "fecha_tle": "2012-03-26",
    "dias_diferencia": 0,
    "inclinacion_orbita": 81.1,
    "lugar_caida": {
      "lat": 47.0,
      "lon": 95.0
    },
    "imagen": null,
    "tle1": "1 03835U 69029A  12086.76135367  .25198191 -97535-6  25232-3 0  9999",
    "tle2": "2 03835 081.1165 230.5329 0011418 263.0265 097.6822 16.50605120355155",
    "a": 6515.884,
    "apogeo": 145.189,
    "perigeo": 130.309
  }
]
